{
  "type": "FeatureCollection",
  "features": [
    {
      "type": "Feature",
      "properties": {
        "norad_id": 34963,
        "name": "COSMOS 2251 DEB",
        "group": "cosmos-2251-debris",
        "lat": -51.39263111830826,
        "lon": -127.33719101611231,
        "alt_km": 698.6942027790901,
        "timestamp": "2025-12-18T13:51:50.081581+00:00",
        "meta_object_name": "COSMOS 2251 DEB",
        "meta_object_id": "1993-036AES",
        "meta_epoch": "2025-12-17T20:14:27.041856",
        "meta_mean_motion": 14.51131283,
        "meta_eccentricity": 0.0042339,
        "meta_inclination": 74.1719,
        "meta_ra_of_asc_node": 33.2219,
        "meta_arg_of_pericenter": 228.7503,
        "meta_mean_anomaly": 131.0009,
        "meta_ephemeris_type": 0,
        "meta_classification_type": "U",
        "meta_norad_cat_id": 34963,
        "meta_element_set_no": 999,
        "meta_rev_at_epoch": 86875,
        "meta_bstar": 0.00095062932,
        "meta_mean_motion_dot": 3.789e-05,
        "meta_mean_motion_ddot": 0,
        "tle_line1": "1 34963U 93036AES 25351.84336854  .00003789  00000+0  95063-3 0  9995",
        "tle_line2": "2 34963  74.1719  33.2219 0042339 228.7503 131.0009 14.51131283868751"
      },
      "geometry": {
        "type": "Point",
        "coordinates": [
          -127.33719101611231,
          -51.39263111830826
        ]
      }
    },
    {
      "type": "Feature",
      "properties": {
        "norad_id": 34964,
        "name": "COSMOS 2251 DEB",
        "group": "cosmos-2251-debris",
        "lat": -73.04149326690474,
        "lon": -92.83349208431561,
        "alt_km": 870.4750821117732,
        "timestamp": "2025-12-18T13:51:50.081591+00:00",
        "meta_object_name": "COSMOS 2251 DEB",
        "meta_object_id": "1993-036AET",
        "meta_epoch": "2025-12-18T07:25:04.519776",
        "meta_mean_motion": 14.00628567,
        "meta_eccentricity": 0.02123167,
        "meta_inclination": 73.9712,
        "meta_ra_of_asc_node": 338.1457,
        "meta_arg_of_pericenter": 195.4091,
        "meta_mean_anomaly": 164.0515,
        "meta_ephemeris_type": 0,
        "meta_classification_type": "U",
        "meta_norad_cat_id": 34964,
        "meta_element_set_no": 999,
        "meta_rev_at_epoch": 84556,
        "meta_bstar": 0.00089791859,
        "meta_mean_motion_dot": 1.6e-05,
        "meta_mean_motion_ddot": 0,
        "tle_line1": "1 34964U 93036AET 25352.30908009  .00001600  00000+0  89792-3 0  9997",
        "tle_line2": "2 34964  73.9712 338.1457 0212316 195.4091 164.0515 14.00628567845561"
      },
      "geometry": {
        "type": "Point",
        "coordinates": [
          -92.83349208431561,
          -73.04149326690474
        ]
      }
    },
    {
      "type": "Feature",
      "properties": {
        "norad_id": 34965,
        "name": "COSMOS 2251 DEB",
        "group": "cosmos-2251-debris",
        "lat": -73.75538108891054,
        "lon": 38.59875356422002,
        "alt_km": 720.3636991516378,
        "timestamp": "2025-12-18T13:51:50.081601+00:00",
        "meta_object_name": "COSMOS 2251 DEB",
        "meta_object_id": "1993-036AEU",
        "meta_epoch": "2025-12-17T15:03:41.961600",
        "meta_mean_motion": 14.48719577,
        "meta_eccentricity": 0.00264531,
        "meta_inclination": 74.0515,
        "meta_ra_of_asc_node": 119.3168,
        "meta_arg_of_pericenter": 245.8821,
        "meta_mean_anomaly": 113.9572,
        "meta_ephemeris_type": 0,
        "meta_classification_type": "U",
        "meta_norad_cat_id": 34965,
        "meta_element_set_no": 999,
        "meta_rev_at_epoch": 87184,
        "meta_bstar": 0.00029308961,
        "meta_mean_motion_dot": 1.082e-05,
        "meta_mean_motion_ddot": 0,
        "tle_line1": "1 34965U 93036AEU 25351.62756900  .00001082  00000+0  29309-3 0  9995",
        "tle_line2": "2 34965  74.0515 119.3168 0026453 245.8821 113.9572 14.48719577871849"
      },
      "geometry": {
        "type": "Point",
        "coordinates": [
          38.59875356422002,
          -73.75538108891054
        ]
      }
    },
    {
      "type": "Feature",
      "properties": {
        "norad_id": 34967,
        "name": "COSMOS 2251 DEB",
        "group": "cosmos-2251-debris",
        "lat": 73.94382799225251,
        "lon": -22.896890068924527,
        "alt_km": 724.6092824410916,
        "timestamp": "2025-12-18T13:51:50.081623+00:00",
        "meta_object_name": "COSMOS 2251 DEB",
        "meta_object_id": "1993-036AEW",
        "meta_epoch": "2025-12-13T00:27:20.673792",
        "meta_mean_motion": 14.44269018,
        "meta_eccentricity": 0.00380101,
        "meta_inclination": 73.9933,
        "meta_ra_of_asc_node": 253.3374,
        "meta_arg_of_pericenter": 39.5345,
        "meta_mean_anomaly": 320.8573,
        "meta_ephemeris_type": 0,
        "meta_classification_type": "U",
        "meta_norad_cat_id": 34967,
        "meta_element_set_no": 999,
        "meta_rev_at_epoch": 64961,
        "meta_bstar": 0.0011451852,
        "meta_mean_motion_dot": 3.946e-05,
        "meta_mean_motion_ddot": 0,
        "tle_line1": "1 34967U 93036AEW 25347.01898928  .00003946  00000+0  11452-2 0  9992",
        "tle_line2": "2 34967  73.9933 253.3374 0038010  39.5345 320.8573 14.44269018649616"
      },
      "geometry": {
        "type": "Point",
        "coordinates": [
          -22.896890068924527,
          73.94382799225251
        ]
      }
    },
    {
      "type": "Feature",
      "properties": {
        "norad_id": 34968,
        "name": "COSMOS 2251 DEB",
        "group": "cosmos-2251-debris",
        "lat": -72.53676451746543,
        "lon": 121.41331576897913,
        "alt_km": 703.6372056315577,
        "timestamp": "2025-12-18T13:51:50.081636+00:00",
        "meta_object_name": "COSMOS 2251 DEB",
        "meta_object_id": "1993-036AEX",
        "meta_epoch": "2025-12-18T02:47:14.790624",
        "meta_mean_motion": 14.59415645,
        "meta_eccentricity": 0.00869026,
        "meta_inclination": 74.0387,
        "meta_ra_of_asc_node": 236.821,
        "meta_arg_of_pericenter": 355.8378,
        "meta_mean_anomaly": 4.2053,
        "meta_ephemeris_type": 0,
        "meta_classification_type": "U",
        "meta_norad_cat_id": 34968,
        "meta_element_set_no": 999,
        "meta_rev_at_epoch": 88556,
        "meta_bstar": 0.00011312461,
        "meta_mean_motion_dot": 5.32e-06,
        "meta_mean_motion_ddot": 0,
        "tle_line1": "1 34968U 93036AEX 25352.11614341  .00000532  00000+0  11312-3 0  9999",
        "tle_line2": "2 34968  74.0387 236.8210 0086902 355.8378   4.2053 14.59415645885567"
      },
      "geometry": {
        "type": "Point",
        "coordinates": [
          121.41331576897913,
          -72.53676451746543
        ]
      }
    },
    {
      "type": "Feature",
      "properties": {
        "norad_id": 34969,
        "name": "COSMOS 2251 DEB",
        "group": "cosmos-2251-debris",
        "lat": 33.9886182704187,
        "lon": -178.66631388527802,
        "alt_km": 729.0038912298005,
        "timestamp": "2025-12-18T13:51:50.081646+00:00",
        "meta_object_name": "COSMOS 2251 DEB",
        "meta_object_id": "1993-036AEY",
        "meta_epoch": "2025-12-15T18:08:26.126880",
        "meta_mean_motion": 14.32260529,
        "meta_eccentricity": 0.00734759,
        "meta_inclination": 74.0142,
        "meta_ra_of_asc_node": 17.6317,
        "meta_arg_of_pericenter": 150.1137,
        "meta_mean_anomaly": 210.4241,
        "meta_ephemeris_type": 0,
        "meta_classification_type": "U",
        "meta_norad_cat_id": 34969,
        "meta_element_set_no": 999,
        "meta_rev_at_epoch": 65180,
        "meta_bstar": 0.00024953546,
        "meta_mean_motion_dot": 6.68e-06,
        "meta_mean_motion_ddot": 0,
        "tle_line1": "1 34969U 93036AEY 25349.75585795  .00000668  00000+0  24954-3 0  9992",
        "tle_line2": "2 34969  74.0142  17.6317 0073475 150.1137 210.4241 14.32260529651808"
      },
      "geometry": {
        "type": "Point",
        "coordinates": [
          -178.66631388527802,
          33.9886182704187
        ]
      }
    },
    {
      "type": "Feature",
      "properties": {
        "norad_id": 34971,
        "name": "COSMOS 2251 DEB",
        "group": "cosmos-2251-debris",
        "lat": -62.753752097938076,
        "lon": 127.82589586286628,
        "alt_km": 730.2135142089755,
        "timestamp": "2025-12-18T13:51:50.081685+00:00",
        "meta_object_name": "COSMOS 2251 DEB",
        "meta_object_id": "1993-036AFA",
        "meta_epoch": "2025-12-16T13:44:10.461120",
        "meta_mean_motion": 14.55639723,
        "meta_eccentricity": 0.00694632,
        "meta_inclination": 73.9787,
        "meta_ra_of_asc_node": 277.721,
        "meta_arg_of_pericenter": 142.4374,
        "meta_mean_anomaly": 40.2269,
        "meta_ephemeris_type": 0,
        "meta_classification_type": "U",
        "meta_norad_cat_id": 34971,
        "meta_element_set_no": 999,
        "meta_rev_at_epoch": 66228,
        "meta_bstar": 0.00015151629,
        "meta_mean_motion_dot": 6.53e-06,
        "meta_mean_motion_ddot": 0,
        "tle_line1": "1 34971U 93036AFA 25350.57234330  .00000653  00000+0  15152-3 0  9997",
        "tle_line2": "2 34971  73.9787 277.7210 0069463 142.4374  40.2269 14.55639723662288"
      },
      "geometry": {
        "type": "Point",
        "coordinates": [
          127.82589586286628,
          -62.753752097938076
        ]
      }
    }
  ]
}